*******************************************************************************
JPL/HORIZONS                    18 Melpomene               2011-May-07 14:05:39
Rec #:    18 (+COV)   Soln.date: 2011-Apr-22_15:05:24   # obs: 4238 (1856-2011)
 
FK5/J2000.0 helio. ecliptic osc. elements (AU, DAYS, DEG, period=Julian yrs):  
 
  EPOCH=  2442902.5 ! 1976-May-04.00 (CT)         Residual RMS= .59027         
    EC= .2179079893947996  QR= 1.795459216214643  TP= 2442409.629220873        
    OM= 150.8404775388746  W= 227.2846295199663   IN= 10.12683694473704        
    A= 2.295713537369185   MA= 139.6563225624665  ADIST= 2.795967858523728     
    PER= 3.47844           N= .283352815          ANGMOM= .025437619           
    DAN= 2.56601           DDN= 1.90509           L= 17.676454                 
    B= -7.4225832                                 TP= 1974-Dec-28.1292209      
 
Physical parameters (KM, SEC, rotational period in hours):
    GM= n.a.               RAD= 70.285            ROTPER= 11.57                
    H= 6.51                G= .250                B-V= .854                    
                           ALBEDO= .2225          STYP= S                      
 
ASTEROID comments: 
1: soln ref.= JPL#64, OCC=0
2: source=ORB
*******************************************************************************
 
 
*******************************************************************************
Ephemeris / WWW_USER Sat May  7 14:05:39 2011  Pasadena, USA     / Horizons    
*******************************************************************************
Target body name: 18 Melpomene                    {source: JPL#64}
Center body name: Earth (399)                     {source: DE405}
Center-site name: GEOCENTRIC
*******************************************************************************
Start time      : A.D. 2011-Apr-18 00:00:00.0000 UT      
Stop  time      : A.D. 2020-May-18 00:00:00.0000 UT      
Step-size       : 1440 minutes
*******************************************************************************
Target pole/equ : No model available
Target radii    : 70.3 km                                                      
Center geodetic : 0.00000000,0.00000000,0.0000000 {E-lon(deg),Lat(deg),Alt(km)}
Center cylindric: 0.00000000,0.00000000,0.0000000 {E-lon(deg),Dxy(km),Dz(km)}
Center pole/equ : High-precision EOP model        {East-longitude +}
Center radii    : 6378.1 x 6378.1 x 6356.8 km     {Equator, meridian, pole}    
Target primary  : Sun                             {source: DE405}
Interfering body: MOON (Req= 1737.400) km         {source: DE405}
Deflecting body : Sun, EARTH                      {source: DE405}
Deflecting GMs  : 1.3271E+11, 3.9860E+05 km^3/s^2                              
Small perturbers: Ceres, Pallas, Vesta            {source: SB405-CPV-2}
Small body GMs  : 6.32E+01, 1.43E+01, 1.78E+01 km^3/s^2                        
Atmos refraction: NO (AIRLESS)
RA format       : HMS
Time format     : CAL 
EOP file        : eop.110506.p110728                                           
EOP coverage    : DATA-BASED 1962-JAN-20 TO 2011-MAY-06. PREDICTS-> 2011-JUL-27
Units conversion: 1 AU= 149597870.691 km, c= 299792.458 km/s, 1 day= 86400.0 s 
Table cut-offs 1: Elevation (-90.0deg=NO ),Airmass (>38.000=NO), Daylight (NO )
Table cut-offs 2: Solar Elongation (  0.0,180.0=NO )                           
*******************************************************************************
Initial FK5/J2000.0 heliocentric ecliptic osculating elements (AU, DAYS, DEG):
  EPOCH=  2442902.5 ! 1976-May-04.00 (CT)         Residual RMS= .59027         
    EC= .2179079893947996  QR= 1.795459216214643  TP= 2442409.629220873        
    OM= 150.8404775388746  W= 227.2846295199663   IN= 10.12683694473704        
Asteroid physical parameters (KM, SEC, rotational period in hours):
    GM= n.a.               RAD= 70.285            ROTPER= 11.57                
    H= 6.51                G= .250                B-V= .854                    
                           ALBEDO= .2225          STYP= S                      
*************************************************************************************************
 Date__(UT)__HR:MN     R.A._(ICRF/J2000.0)_DEC R.A.__(a-apparent)__DEC  APmag  S-brt   Illu% Cnst
*************************************************************************************************
$$SOE
 2016-May-09 00:00     23 06 27.05 -03 47 53.2 23 07 16.75 -03 42 38.2  10.78   5.16  94.522  Aqr
 2016-May-10 00:00     23 08 28.61 -03 38 27.1 23 09 18.32 -03 33 11.4  10.77   5.16  94.460  Aqr
 2016-May-11 00:00     23 10 30.06 -03 29 02.2 23 11 19.76 -03 23 45.8  10.76   5.16  94.398  Aqr
 2016-May-12 00:00     23 12 31.39 -03 19 38.5 23 13 21.09 -03 14 21.4  10.75   5.17  94.337  Aqr
 2016-May-13 00:00     23 14 32.61 -03 10 16.0 23 15 22.31 -03 04 58.3  10.74   5.17  94.275  Psc
 2016-May-14 00:00     23 16 33.71 -03 00 55.0 23 17 23.41 -02 55 36.8  10.73   5.17  94.214  Psc
 2016-May-15 00:00     23 18 34.70 -02 51 35.6 23 19 24.39 -02 46 16.8  10.72   5.17  94.153  Psc
 2016-May-16 00:00     23 20 35.58 -02 42 17.8 23 21 25.26 -02 36 58.5  10.71   5.17  94.093  Psc
 2016-May-17 00:00     23 22 36.34 -02 33 01.7 23 23 26.02 -02 27 41.9  10.70   5.17  94.032  Psc
 2016-May-18 00:00     23 24 36.99 -02 23 47.5 23 25 26.67 -02 18 27.3  10.69   5.17  93.972  Psc
 2016-May-19 00:00     23 26 37.53 -02 14 35.3 23 27 27.20 -02 09 14.6  10.68   5.17  93.913  Psc
 2016-May-20 00:00     23 28 37.95 -02 05 25.2 23 29 27.63 -02 00 04.0  10.67   5.17  93.853  Psc
 2016-May-21 00:00     23 30 38.27 -01 56 17.2 23 31 27.95 -01 50 55.7  10.66   5.17  93.794  Psc
 2016-May-22 00:00     23 32 38.47 -01 47 11.6 23 33 28.16 -01 41 49.7  10.65   5.17  93.736  Psc
 2016-May-23 00:00     23 34 38.56 -01 38 08.4 23 35 28.26 -01 32 46.1  10.64   5.17  93.677  Psc
 2016-May-24 00:00     23 36 38.53 -01 29 07.8 23 37 28.24 -01 23 45.1  10.63   5.17  93.620  Psc
 2016-May-25 00:00     23 38 38.39 -01 20 09.9 23 39 28.11 -01 14 46.8  10.62   5.18  93.562  Psc
 2016-May-26 00:00     23 40 38.13 -01 11 14.7 23 41 27.86 -01 05 51.3  10.61   5.18  93.505  Psc
 2016-May-27 00:00     23 42 37.74 -01 02 22.5 23 43 27.50 -00 56 58.8  10.60   5.18  93.449  Psc
 2016-May-28 00:00     23 44 37.24 -00 53 33.3 23 45 27.00 -00 48 09.4  10.59   5.18  93.393  Psc
 2016-May-29 00:00     23 46 36.60 -00 44 47.4 23 47 26.38 -00 39 23.2  10.58   5.18  93.337  Psc
 2016-May-30 00:00     23 48 35.83 -00 36 04.7 23 49 25.62 -00 30 40.4  10.57   5.18  93.282  Psc
 2016-May-31 00:00     23 50 34.93 -00 27 25.6 23 51 24.73 -00 22 01.1  10.55   5.18  93.228  Psc
 2016-Jun-01 00:00     23 52 33.88 -00 18 50.0 23 53 23.69 -00 13 25.4  10.54   5.18  93.174  Psc
 2016-Jun-02 00:00     23 54 32.68 -00 10 18.2 23 55 22.51 -00 04 53.5  10.53   5.18  93.121  Psc
 2016-Jun-03 00:00     23 56 31.33 -00 01 50.3 23 57 21.17 +00 03 34.5  10.52   5.18  93.068  Psc
 2016-Jun-04 00:00     23 58 29.81 +00 06 33.5 23 59 19.68 +00 11 58.4  10.51   5.18  93.016  Psc
 2016-Jun-05 00:00     00 00 28.13 +00 14 53.1 00 01 18.02 +00 20 18.2  10.50   5.18  92.965  Psc
 2016-Jun-06 00:00     00 02 26.28 +00 23 08.4 00 03 16.20 +00 28 33.6  10.48   5.18  92.914  Psc
 2016-Jun-07 00:00     00 04 24.25 +00 31 19.2 00 05 14.19 +00 36 44.4  10.47   5.18  92.864  Psc
 2016-Jun-08 00:00     00 06 22.03 +00 39 25.4 00 07 12.01 +00 44 50.6  10.46   5.18  92.815  Psc
 2016-Jun-09 00:00     00 08 19.64 +00 47 26.9 00 09 09.64 +00 52 52.1  10.45   5.18  92.767  Psc
 2016-Jun-10 00:00     00 10 17.06 +00 55 23.4 00 11 07.09 +01 00 48.6  10.43   5.18  92.720  Psc
 2016-Jun-11 00:00     00 12 14.28 +01 03 15.0 00 13 04.34 +01 08 40.0  10.42   5.18  92.673  Psc
 2016-Jun-12 00:00     00 14 11.31 +01 11 01.3 00 15 01.39 +01 16 26.3  10.41   5.18  92.627  Psc
 2016-Jun-13 00:00     00 16 08.15 +01 18 42.4 00 16 58.25 +01 24 07.2  10.40   5.18  92.582  Psc
 2016-Jun-14 00:00     00 18 04.78 +01 26 18.1 00 18 54.90 +01 31 42.7  10.38   5.18  92.538  Psc
 2016-Jun-15 00:00     00 20 01.21 +01 33 48.2 00 20 51.36 +01 39 12.7  10.37   5.18  92.495  Psc
 2016-Jun-16 00:00     00 21 57.43 +01 41 12.7 00 22 47.60 +01 46 36.9  10.36   5.18  92.453  Psc
 2016-Jun-17 00:00     00 23 53.43 +01 48 31.3 00 24 43.64 +01 53 55.3  10.34   5.18  92.411  Psc
 2016-Jun-18 00:00     00 25 49.21 +01 55 44.0 00 26 39.45 +02 01 07.7  10.33   5.18  92.371  Psc
 2016-Jun-19 00:00     00 27 44.77 +02 02 50.5 00 28 35.05 +02 08 14.1  10.32   5.18  92.332  Cet
 2016-Jun-20 00:00     00 29 40.10 +02 09 50.8 00 30 30.42 +02 15 14.1  10.30   5.18  92.293  Cet
 2016-Jun-21 00:00     00 31 35.20 +02 16 44.8 00 32 25.55 +02 22 07.8  10.29   5.18  92.256  Cet
 2016-Jun-22 00:00     00 33 30.05 +02 23 32.2 00 34 20.44 +02 28 54.9  10.28   5.18  92.220  Cet
 2016-Jun-23 00:00     00 35 24.65 +02 30 12.9 00 36 15.08 +02 35 35.3  10.26   5.18  92.185  Cet
 2016-Jun-24 00:00     00 37 18.99 +02 36 46.8 00 38 09.45 +02 42 08.9  10.25   5.18  92.151  Cet
 2016-Jun-25 00:00     00 39 13.06 +02 43 13.7 00 40 03.56 +02 48 35.4  10.23   5.18  92.118  Psc
 2016-Jun-26 00:00     00 41 06.85 +02 49 33.5 00 41 57.38 +02 54 54.8  10.22   5.18  92.086  Psc
 2016-Jun-27 00:00     00 43 00.35 +02 55 45.9 00 43 50.91 +03 01 06.8  10.20   5.17  92.056  Psc
 2016-Jun-28 00:00     00 44 53.55 +03 01 50.9 00 45 44.14 +03 07 11.3  10.19   5.17  92.026  Psc
 2016-Jun-29 00:00     00 46 46.43 +03 07 48.2 00 47 37.06 +03 13 08.1  10.18   5.17  91.998  Psc
 2016-Jun-30 00:00     00 48 38.98 +03 13 37.7 00 49 29.65 +03 18 57.1  10.16   5.17  91.972  Psc
 2016-Jul-01 00:00     00 50 31.19 +03 19 19.2 00 51 21.90 +03 24 38.1  10.15   5.17  91.947  Psc
 2016-Jul-02 00:00     00 52 23.04 +03 24 52.5 00 53 13.79 +03 30 10.9  10.13   5.17  91.923  Psc
 2016-Jul-03 00:00     00 54 14.52 +03 30 17.5 00 55 05.32 +03 35 35.4  10.12   5.17  91.900  Psc
